{
    "links": {
        "self": "http://www.neowsapp.com/rest/v1/neo/3727044?api_key=iIulBulltgU6a56xZRHN4H3l9WmuAYTsLGpBGhQ2"
    },
    "id": "3727044",
    "neo_reference_id": "3727044",
    "name": "(2015 RV35)",
    "designation": "2015 RV35",
    "nasa_jpl_url": "http://ssd.jpl.nasa.gov/sbdb.cgi?sstr=3727044",
    "absolute_magnitude_h": 24.0,
    "estimated_diameter": {
        "kilometers": {
            "estimated_diameter_min": 0.0421264611,
            "estimated_diameter_max": 0.0941976306
        },
        "meters": {
            "estimated_diameter_min": 42.1264610556,
            "estimated_diameter_max": 94.1976305719
        },
        "miles": {
            "estimated_diameter_min": 0.0261761612,
            "estimated_diameter_max": 0.0585316759
        },
        "feet": {
            "estimated_diameter_min": 138.2101784897,
            "estimated_diameter_max": 309.0473542854
        }
    },
    "is_potentially_hazardous_asteroid": false,
    "close_approach_data": [
        {
            "close_approach_date": "2015-09-11",
            "close_approach_date_full": "2015-Sep-11 00:43",
            "epoch_date_close_approach": 1441932180000,
            "relative_velocity": {
                "kilometers_per_second": "12.1504082852",
                "kilometers_per_hour": "43741.4698266275",
                "miles_per_hour": "27179.2482931064"
            },
            "miss_distance": {
                "astronomical": "0.104565846",
                "lunar": "40.676114094",
                "kilometers": "15642827.83634802",
                "miles": "9720002.495001876"
            },
            "orbiting_body": "Earth"
        }
    ],
    "orbital_data": {
        "orbit_id": "4",
        "orbit_determination_date": "2017-04-06 08:32:07",
        "first_observation_date": "2015-09-10",
        "last_observation_date": "2015-09-17",
        "data_arc_in_days": 7,
        "observations_used": 10,
        "orbit_uncertainty": "8",
        "minimum_orbit_intersection": ".09507",
        "jupiter_tisserand_invariant": "5.103",
        "epoch_osculation": "2457276.5",
        "eccentricity": ".110248923622042",
        "semi_major_axis": "1.234404079761791",
        "inclination": "23.59304043211736",
        "ascending_node_longitude": "169.1615211218196",
        "orbital_period": "500.9385444124905",
        "perihelion_distance": "1.098312358653396",
        "perihelion_argument": "164.9326217509438",
        "aphelion_distance": "1.370495800870186",
        "perihelion_time": "2457258.727868684217",
        "mean_anomaly": "12.77196044314284",
        "mean_motion": ".7186510281859311",
        "equinox": "J2000",
        "orbit_class": {
            "orbit_class_type": "AMO",
            "orbit_class_description": "Near-Earth asteroid orbits similar to that of 1221 Amor",
            "orbit_class_range": "1.017 AU < q (perihelion) < 1.3 AU"
        }
    },
    "is_sentry_object": false
}